HST                     
1 20580U 90037B   26188.41758047  .00005122  00000+0  15863-3 0  9990
2 20580  28.4735 302.2866 0001900  28.7045 331.3656 15.31001847791676
POLAR                   
1 23802U 96013A   26188.06318554  .00000202  00000+0  00000+0 0  9993
2 23802  79.8793 226.8164 6490473 208.3961  91.1712  1.29846098145111
SWAS                    
1 25560U 98071A   26188.48954360  .00001849  00000+0  12092-3 0  9995
2 25560  69.8940 175.1581 0008163 238.7721 121.2643 15.09718440500331
CXO                     
1 25867U 99040B   26190.53346781  .00000720  00000+0  00000+0 0  9992
2 25867  56.4882 116.0417 7806470 310.0470   0.4589  0.37804829 17409
XMM-NEWTON              
1 25989U 99066A   26189.29225867  .00000112  00000+0  00000+0 0  9992
2 25989  64.3787 282.7174 4670357  64.5370   0.0317  0.50122523 23116
TERRA                   
1 25994U 99068A   26188.50724569  .00000320  00000+0  74049-4 0  9996
2 25994  97.9444 237.2467 0003045 138.1285 354.4816 14.61119538412578
CLUSTER II-FM7 (SAMBA)  
1 26410U 00041A   26190.44939577  .00010356  00000+0  00000+0 0  9997
2 26410 149.8605  54.9301 9081562 272.3489 359.6364  0.44874124 20413
CLUSTER II-FM8 (TANGO)  
1 26464U 00045B   26186.44807693  .00007114  00000+0  00000+0 0  9996
2 26464 150.0908  55.3344 9082146 272.5670   2.3329  0.44420952 20393
ODIN                    
1 26702U 01007A   26187.98430022  .00262243  00000+0  10929-2 0  9998
2 26702  97.3761 230.3091 0005298 141.5779 218.5869 15.85006600392529
TIMED                   
1 26998U 01055B   26188.01250680  .00000961  00000+0  90752-4 0  9994
2 26998  74.0660 195.0990 0002002 309.1711  50.9295 14.95332579333780
CORIOLIS                
1 27640U 03001A   26188.42062040  .00000078  00000+0  57229-4 0  9999
2 27640  98.7130 194.9966 0014593 150.4543 209.7461 14.19950255217096
SORCE                   
1 27651U 03004A   26188.32867393  .00002299  00000+0  17465-3 0  9991
2 27651  39.9895 146.7523 0017916 200.9271 159.0792 15.03813908274935
MOST                    
1 27843U 03031D   26188.48553102  .00000051  00000+0  43575-4 0  9997
2 27843  98.7048 195.9281 0009632 187.2312 172.8728 14.21326656193599
SCISAT 1                
1 27858U 03036A   26188.28179499  .00000622  00000+0  84040-4 0  9995
2 27858  73.9300 131.4176 0007775 200.8409 159.2452 14.81472266234420
SWIFT                   
1 28485U 04047A   26186.87627307  .00061981  00000+0  47565-3 0  9999
2 28485  20.5532  40.5436 0000897 245.9890 114.0463 15.70286946189802
HINODE (SOLAR-B)        
1 29479U 06041A   26188.48849989  .00000592  00000+0  11006-3 0  9992
2 29479  98.0547 204.3417 0016467 219.8369 140.1629 14.68651378 57856
SHIJIAN-6 02A (SJ-6 02A)
1 29505U 06046A   26188.60479623  .00006160  00000+0  31345-3 0  9990
2 29505  97.6344 229.8269 0004598  79.4153 280.7598 15.17191241 75361
SHIJIAN-6 02B (SJ-6 02B)
1 29506U 06046B   26188.60668965  .00001320  00000+0  10681-3 0  9993
2 29506  97.7150 217.5392 0014375   1.2302 358.8955 15.01429554 73807
FGRST (GLAST)           
1 33053U 08029A   26188.06793253  .00002959  00000+0  10499-3 0  9993
2 33053  25.5824  66.4278 0007937 198.7126 161.3121 15.24044403998878
SDO                     
1 36395U 10005A   26188.25007061 -.00000076  00000+0  00000+0 0  9990
2 36395  34.6901  86.0392 0001652  55.2327 131.6689  1.00269725 60267
CRYOSAT 2               
1 36508U 10013A   26188.55079424  .00000140  00000+0  33930-4 0  9994
2 36508  92.0359 282.2521 0002276  97.6187 262.5279 14.51896512861032
X-SAT                   
1 37389U 11015C   26188.58503883 -.00000102  00000+0 -25903-4 0  9990
2 37389  98.3525 164.6376 0012826 285.6853  74.2912 14.25211749790583
GCOM-W1 (SHIZUKU)       
1 38337U 12025A   26188.30903358  .00000400  00000+0  98816-4 0  9999
2 38337  98.2023 128.5605 0001418  65.4495  95.5099 14.57143633751966
NUSTAR                  
1 38358U 12031A   26188.58335648  .00015780  00000+0  91380-3 0  9995
2 38358   6.0263 241.1309 0006798  49.9101 254.1792 15.08994824  1304
NEOSSAT                 
1 39089U 13009D   26188.48825422  .00000130  00000+0  59671-4 0  9997
2 39089  98.4186   8.0389 0010952 179.6974 180.4221 14.35833637699651
BRITE-AUSTRIA           
1 39091U 13009F   26188.47677473  .00000141  00000+0  62513-4 0  9991
2 39091  98.4005   7.4112 0010287 172.8731 187.2604 14.36550284699967
IRIS                    
1 39197U 13033A   26188.50162562  .00000873  00000+0  10608-3 0  9996
2 39197  97.9322  27.7147 0022992 251.6485 108.2229 14.85926207703396
HISAKI (SPRINT-A)       
1 39253U 13049A   26188.23481475  .00000101  00000+0  46679-4 0  9995
2 39253  29.7191 118.0835 0136917 179.3845 180.6910 13.55546243634144
CASSIOPE                
1 39265U 13055A   26188.48695325  .00030648 -50902-6  32921-3 0  9990
2 39265  80.9130  42.0335 0284915 354.0396   5.7464 15.27023821670767
STSAT-3                 
1 39422U 13066G   26188.62053005  .00000549  00000+0  45424-4 0  9992
2 39422  97.6205 158.1800 0009064 336.8552  23.2264 15.02862492687273
SWARM B                 
1 39451U 13067A   26188.55872825  .00002812  00000+0  99610-4 0  9997
2 39451  87.7455 336.1276 0002609  79.9804 280.1739 15.28683607686356
